{
  "type": "FeatureCollection",
  "generator": "overpass-turbo",
  "copyright": "The data included in this document is from www.openstreetmap.org. The data is made available under ODbL.",
  "timestamp": "2025-12-01T14:22:46Z",
  "features": [
    {
      "type": "Feature",
      "properties": {
        "@id": "way/155183767",
        "addr:city": "Utsjoki",
        "addr:housenumber": "1",
        "addr:postcode": "99980",
        "addr:street": "Utsjoentie",
        "building": "mall",
        "name": "Uulan säästö",
        "opening_hours": "Mo-Fr 09:00-18:00; Sa 09:00-16:00",
        "operator": "Uulan Säästö Ky",
        "shop": "supermarket",
        "snowmobile": "yes",
        "website": "https://uulansaasto.fi/",
        "@geometry": "center"
      },
      "geometry": {
        "type": "Point",
        "coordinates": [
          27.0272368,
          69.9073335
        ]
      },
      "id": "way/155183767"
    },
    {
      "type": "Feature",
      "properties": {
        "@id": "way/186956947",
        "addr:city": "Ivalo",
        "addr:housename": "S-market Vaskooli",
        "addr:housenumber": "2",
        "addr:postcode": "99800",
        "addr:street": "Petsamontie",
        "branch": "Ivalo",
        "brand": "S-market",
        "brand:wikidata": "Q11891613",
        "building": "supermarket",
        "building:levels": "1",
        "name": "S-market",
        "opening_hours": "Mo-Su 07:00-22:00",
        "phone": "+358447884923",
        "roof:shape": "flat",
        "shop": "supermarket",
        "toilets": "yes",
        "website": "https://www.s-kaupat.fi/myymala/s-market-ivalo/502098866",
        "wheelchair": "yes",
        "@geometry": "center"
      },
      "geometry": {
        "type": "Point",
        "coordinates": [
          27.5404879,
          68.6591866
        ]
      },
      "id": "way/186956947"
    },
    {
      "type": "Feature",
      "properties": {
        "@id": "way/214702136",
        "addr:city": "Näätämö",
        "addr:housenumber": "12200",
        "addr:postcode": "99940",
        "addr:street": "Sevettijärventie",
        "branch": "Näätämö",
        "brand": "K-Market",
        "brand:wikidata": "Q11868562",
        "building": "retail",
        "building:levels": "1",
        "name": "K-Market",
        "opening_hours": "Mo-Fr 09:00-19:00; Sa-Su 09:00-18:00",
        "outdoor_seating": "no",
        "phone": "0207354466",
        "shop": "convenience",
        "smoking": "outside",
        "website": "https://www.k-ruoka.fi/kauppa/k-market-naatamo",
        "@geometry": "center"
      },
      "geometry": {
        "type": "Point",
        "coordinates": [
          29.1027697,
          69.6641188
        ]
      },
      "id": "way/214702136"
    },
    {
      "type": "Feature",
      "properties": {
        "@id": "way/214702137",
        "addr:city": "Näätämö",
        "addr:housenumber": "12206",
        "addr:postcode": "99940",
        "addr:street": "Sevettijärventie",
        "building": "supermarket",
        "building:levels": "1",
        "name": "Nord 1 Market",
        "opening_hours": "Mo-Fr 10:00-19:00; Sa,Su 10:00-18:00",
        "outdoor_seating": "no",
        "roof:shape": "gabled",
        "shop": "supermarket",
        "website": "https://www.nord1market.com/",
        "@geometry": "center"
      },
      "geometry": {
        "type": "Point",
        "coordinates": [
          29.1039776,
          69.6644206
        ]
      },
      "id": "way/214702137"
    },
    {
      "type": "Feature",
      "properties": {
        "@id": "way/219878111",
        "addr:city": "Ivalo",
        "addr:country": "FI",
        "addr:housenumber": "17",
        "addr:postcode": "99800",
        "addr:street": "Ivalontie",
        "branch": "Ivalo",
        "brand": "K-Supermarket",
        "brand:wikidata": "Q5408668",
        "building": "retail",
        "check_date:opening_hours": "2024-09-18",
        "name": "K-Supermarket",
        "opening_hours": "Mo-Fr 07:00-22:00; Sa-Su 08:00-22:00",
        "phone": "+358 16 6755700",
        "shop": "supermarket",
        "website": "https://www.k-ruoka.fi/kauppa/k-supermarket-ivalo",
        "wheelchair": "yes",
        "@geometry": "center"
      },
      "geometry": {
        "type": "Point",
        "coordinates": [
          27.5420689,
          68.6555779
        ]
      },
      "id": "way/219878111"
    },
    {
      "type": "Feature",
      "properties": {
        "@id": "way/385221542",
        "addr:city": "Nuorgam",
        "addr:housenumber": "4298",
        "addr:postcode": "99990",
        "addr:street": "Nuorgamintie",
        "building": "retail",
        "email": "arto.aurala@k-market.com",
        "name": "Kauppakeskus Nuorgam",
        "opening_hours": "Mo-Fr 10:00-20:00; Sa 10:00-18:00; Su 11:00-16:00",
        "phone": "+358207861130",
        "shop": "supermarket",
        "website": "https://www.k-marketnuorgam.fi/",
        "@geometry": "center"
      },
      "geometry": {
        "type": "Point",
        "coordinates": [
          27.8669648,
          70.0802683
        ]
      },
      "id": "way/385221542"
    },
    {
      "type": "Feature",
      "properties": {
        "@id": "node/1663104467",
        "addr:city": "Ivalo",
        "addr:country": "FI",
        "addr:housename": "SillmaasEma",
        "addr:housenumber": "3",
        "addr:postcode": "99800",
        "addr:street": "Petsamontie",
        "branch": "Petsamontie",
        "brand": "K-Market",
        "brand:wikidata": "Q11868562",
        "name": "K-Market",
        "opening_hours": "Mo-Fr 06:30-22:00; Sa 07:00-22:00; Su 08:00-22:00",
        "phone": "020 700 5635",
        "shop": "convenience",
        "website": "https://www.k-ruoka.fi/kauppa/k-market-petsamontie",
        "wheelchair": "limited"
      },
      "geometry": {
        "type": "Point",
        "coordinates": [
          27.5445933,
          68.6599678
        ]
      },
      "id": "node/1663104467"
    },
    {
      "type": "Feature",
      "properties": {
        "@id": "node/1714235589",
        "name": "Tarmo Kaamasen Kotipuoti",
        "opening_hours": "Mo-Fr 09:00-17:00; Sa 09:00-14:00; Su off",
        "shop": "convenience",
        "was:website": "http://www.tarmo.net/lahin_tarmosi/fi_FI/kaamanen/",
        "wheelchair": "no"
      },
      "geometry": {
        "type": "Point",
        "coordinates": [
          27.19428,
          69.1025469
        ]
      },
      "id": "node/1714235589"
    },
    {
      "type": "Feature",
      "properties": {
        "@id": "node/1883617431",
        "addr:city": "Inari",
        "addr:housenumber": "45",
        "addr:postcode": "99870",
        "addr:street": "Inarintie",
        "branch": "Inari",
        "brand": "K-Market",
        "brand:wikidata": "Q11868562",
        "name": "K-Market",
        "opening_hours": "Mo-Su 07:00-22:00",
        "outdoor_seating": "no",
        "phone": "0503649654",
        "shop": "supermarket",
        "website": "https://www.k-ruoka.fi/kauppa/k-market-inari"
      },
      "geometry": {
        "type": "Point",
        "coordinates": [
          27.02592,
          68.9058591
        ]
      },
      "id": "node/1883617431"
    },
    {
      "type": "Feature",
      "properties": {
        "@id": "node/2939286460",
        "addr:city": "Nuorgam",
        "addr:housenumber": "4298",
        "addr:postcode": "99990",
        "addr:street": "Nuorgamintie",
        "brand": "K-Market",
        "brand:wikidata": "Q11868562",
        "brand:wikipedia": "fi:K-Market",
        "name": "K-Market",
        "opening_hours": "Mo-Fr 10:00-20:00; Sa 10:00-18:00; Su 11:00-16:00",
        "operator": "Kesko",
        "phone": "0207861130",
        "shop": "convenience",
        "website": "https://www.k-ruoka.fi/kauppa/k-market-nuorgam"
      },
      "geometry": {
        "type": "Point",
        "coordinates": [
          27.8672777,
          70.0803048
        ]
      },
      "id": "node/2939286460"
    },
    {
      "type": "Feature",
      "properties": {
        "@id": "node/4033038098",
        "name": "Sevetin Baari",
        "opening_hours": "Tu-Th 10:00-18:00, Fr 11:00-01:00, Sa 11:00-18:00, Su 11:00-17:00",
        "shop": "convenience",
        "website": "https://www.facebook.com/Sevetinbaari"
      },
      "geometry": {
        "type": "Point",
        "coordinates": [
          28.599963,
          69.5087325
        ]
      },
      "id": "node/4033038098"
    },
    {
      "type": "Feature",
      "properties": {
        "@id": "node/7772851332",
        "addr:city": "Inari",
        "addr:housenumber": "2",
        "addr:postcode": "99870",
        "addr:street": "Lehtolantie",
        "branch": "Inari",
        "brand": "Sale",
        "brand:wikidata": "Q11892046",
        "name": "Sale",
        "opening_hours": "Mo-Su 07:00-22:00",
        "phone": "+358447886370",
        "shop": "convenience",
        "website": "https://www.s-kaupat.fi/myymala/sale-inari/725917623"
      },
      "geometry": {
        "type": "Point",
        "coordinates": [
          27.0270739,
          68.905246
        ]
      },
      "id": "node/7772851332"
    },
    {
      "type": "Feature",
      "properties": {
        "@id": "node/7775492731",
        "addr:city": "Karigasniemi",
        "addr:housenumber": "24",
        "addr:postcode": "99950",
        "addr:street": "Ylätenontie",
        "branch": "Karigasniemi",
        "brand": "K-Market",
        "brand:wikidata": "Q11868562",
        "check_date": "2025-10-13",
        "check_date:currency:XBT": "2025-11-06",
        "contact:facebook": "https://www.facebook.com/people/K-Market-Karigasniemi/61558575360054/",
        "currency:XBT": "yes",
        "name": "K-Market",
        "opening_hours": "Mo-Fr 09:00-20:00; Sa 09:00-19:00; Su 11:00-18:00",
        "operator": "Kesko",
        "payment:lightning": "yes",
        "payment:lightning_contactless": "yes",
        "payment:onchain": "yes",
        "phone": "+358 16 676241",
        "shop": "convenience",
        "website": "https://www.k-ruoka.fi/kauppa/k-market-karigasniemi"
      },
      "geometry": {
        "type": "Point",
        "coordinates": [
          25.8526723,
          69.3987325
        ]
      },
      "id": "node/7775492731"
    },
    {
      "type": "Feature",
      "properties": {
        "@id": "node/9655340002",
        "addr:housenumber": "2",
        "addr:street": "Kelotie",
        "branch": "Pikku-Kuukkeli",
        "brand": "K-Market",
        "brand:wikidata": "Q11868562",
        "brand:wikipedia": "fi:K-Market",
        "name": "K-Market",
        "shop": "convenience",
        "short_name": "Kuukkeli"
      },
      "geometry": {
        "type": "Point",
        "coordinates": [
          27.410485,
          68.4218063
        ]
      },
      "id": "node/9655340002"
    }
  ]
}