{
"type": "FeatureCollection",
"generator": "overpass-turbo",
"copyright": "The data included in this document is from www.openstreetmap.org. The data is made available under ODbL.",
"timestamp": "2025-11-22T14:34:13Z",
"name": "post",
"features": [
{ "type": "Feature", "id": "way/1417331499", "properties": { "@id": "way/1417331499", "amenity": "post_office", "brand": "Posten", "brand:wikidata": "Q1815701", "indoor": "yes", "level": "0", "opening_hours": "Mo-Fr 08:00-22:00; Sa 09:00-20:00; Su off" }, "geometry": { "type": "Polygon", "coordinates": [ [ [ 29.7264809, 70.6374309 ], [ 29.7263403, 70.6373357 ], [ 29.7264532, 70.6373183 ], [ 29.7265926, 70.6374128 ], [ 29.7265368, 70.6374219 ], [ 29.7264809, 70.6374309 ] ] ] } },
{ "type": "Feature", "id": "node/3481321351", "properties": { "@id": "node/3481321351", "alt_name": "Nærbutikken Máze post i butikk", "amenity": "post_office", "brand": "Posten", "name": "Máze post i butikk", "opening_hours": "Tu-Fr 11:00-16:00", "operator": "Nærbutikken Máze", "post_office": "post_annex", "ref:posten": "127104" }, "geometry": { "type": "Point", "coordinates": [ 23.667577, 69.443589 ] } },
{ "type": "Feature", "id": "node/6013614358", "properties": { "@id": "node/6013614358", "alt_name": "Matkroken Kvalfjord post i butikk", "amenity": "post_office", "brand": "Posten", "name": "Kvalfjord post i butikk", "opening_hours": "Mo-Fr 10:00-13:30, Sa 10:00-13:00", "operator": "Matkroken Kvalfjord", "post_office": "post_annex", "ref:posten": "127155" }, "geometry": { "type": "Point", "coordinates": [ 22.8717829, 70.3184991 ] } },
{ "type": "Feature", "id": "node/7947230853", "properties": { "@id": "node/7947230853", "alt_name": "Rema 1000 Elvebakken post i butikk", "amenity": "post_office", "brand": "Posten", "brand:wikidata": "Q1815701", "name": "Alta Øst post i butikk", "opening_hours": "Mo-Sa 07:00-23:00", "operator": "Rema 1000 Elvebakken", "post_office": "post_annex", "ref:posten": "128174" }, "geometry": { "type": "Point", "coordinates": [ 23.371429, 69.970847 ] } },
{ "type": "Feature", "id": "node/7947230854", "properties": { "@id": "node/7947230854", "alt_name": "Bunnpris Bossekop post i butikk", "amenity": "post_office", "brand": "Posten", "brand:wikidata": "Q1815701", "name": "Bossekop post i butikk", "opening_hours": "Mo-Fr 07:00-23:00, Sa 08:00-23:00", "operator": "Bunnpris Bossekop", "post_office": "post_annex", "ref:posten": "127524" }, "geometry": { "type": "Point", "coordinates": [ 23.229571, 69.960307 ] } },
{ "type": "Feature", "id": "node/8899043034", "properties": { "@id": "node/8899043034", "alt_name": "Extra Elvebakken post i butikk", "amenity": "post_office", "brand": "Posten", "brand:wikidata": "Q1815701", "name": "Elvebakken post i butikk", "opening_hours": "Mo-Sa 07:00-23:00", "operator": "Extra Elvebakken", "post_office": "post_annex", "ref:posten": "127529" }, "geometry": { "type": "Point", "coordinates": [ 23.3690749, 69.97324 ] } },
{ "type": "Feature", "id": "node/8899043040", "properties": { "@id": "node/8899043040", "alt_name": "Rema 1000 Alta post i butikk", "amenity": "post_office", "brand": "Posten", "brand:wikidata": "Q1815701", "name": "Alta post i butikk", "opening_hours": "Mo-Sa 07:00-23:00", "operator": "Rema 1000 Alta", "post_office": "post_annex", "ref:posten": "128123" }, "geometry": { "type": "Point", "coordinates": [ 23.271116, 69.964023 ] } },
{ "type": "Feature", "id": "node/11052177223", "properties": { "@id": "node/11052177223", "alt_name": "Rema 1000 Kautokeino post i butikk", "amenity": "post_office", "brand": "Posten", "name": "Kautokeino post i butikk", "opening_hours": "Mo-Sa 07:00-23:00", "operator": "Rema 1000 Kautokeino", "post_office": "post_annex", "ref:posten": "128069" }, "geometry": { "type": "Point", "coordinates": [ 23.0422906, 69.0040219 ] } }
]
}
